0 FENGYUN 1C DEB
1 31458U 99025BUW 13286.36525682  .00002048  00000-0  59928-3 0  4381
2 31458 099.2266 116.5283 0103952 322.8196 036.9422 14.42119419341105
0 FENGYUN 1C DEB
1 31458U 99025BUW 13287.75280561  .00002448  00000-0  71352-3 0  4399
2 31458 099.2270 118.0378 0103581 318.0741 041.3055 14.42130953341303
0 FENGYUN 1C DEB
1 31458U 99025BUW 13288.72412166  .00002826  00000-0  82262-3 0  4409
2 31458 099.2247 119.0838 0101899 315.5451 043.7763 14.42141076341444
0 FENGYUN 1C DEB
1 31458U 99025BUW 13294.34384680  .00003025  00000-0  87815-3 0  4415
2 31458 099.2209 125.1451 0102541 299.1768 059.9829 14.42178320342258
